NORAD_CAT_ID,OBJECT_NAME,OBJECT_TYPE,EPOCH,MEAN_MOTION,ECCENTRICITY,INCLINATION,RA_OF_ASC_NODE,ARG_OF_PERICENTER,MEAN_ANOMALY,BSTAR,MEAN_MOTION_DOT,MEAN_MOTION_DDOT,TLE_LINE0,TLE_LINE1,TLE_LINE2,SEMIMAJOR_AXIS,PERIOD,APOGEE,PERIGEE,DECAYED
52842.0,STARLINK-4046,PAYLOAD,2023-11-12 22:27:55,15.08844447,0.0001319,53.2162,239.7574,95.1577,264.9565,0.00015249,2.14e-05,0.0,0 STARLINK-4046,1 52842U 22062N   23316.93605927  .00002140  00000-0  15249-3 0  9990,2 52842  53.2162 239.7574 0001319  95.1577 264.9565 15.08844447 77801,6917.867,95.437,540.644,538.819,0.0
52842.0,STARLINK-4046,PAYLOAD,2023-11-13 04:49:27,15.08856447,0.0001425,53.216,238.5658,109.2679,250.8467,0.00035024,5.293e-05,0.0,0 STARLINK-4046,1 52842U 22062N   23317.20101497  .00005293  00000-0  35024-3 0  9999,2 52842  53.2160 238.5658 0001425 109.2679 250.8467 15.08856447 78334,6917.83,95.437,540.681,538.709,0.0
52842.0,STARLINK-4046,PAYLOAD,2023-11-14 01:29:29,15.08837848,0.0001239,53.2159,234.702,81.2001,278.9132,0.00011377,1.523e-05,0.0,0 STARLINK-4046,1 52842U 22062N   23318.06214610  .00001523  00000-0  11377-3 0  9993,2 52842  53.2159 234.7020 0001239  81.2001 278.9132 15.08837848 78462,6917.887,95.438,540.609,538.895,0.0
52842.0,STARLINK-4046,PAYLOAD,2023-11-14 11:01:48,15.08839093,0.0001425,53.216,232.9163,77.8721,282.2431,1.915e-05,1.7e-07,0.0,0 STARLINK-4046,1 52842U 22062N   23318.45958458  .00000017  00000-0  19150-4 0  9996,2 52842  53.2160 232.9163 0001425  77.8721 282.2431 15.08839093 78036,6917.883,95.438,540.734,538.762,0.0
52842.0,STARLINK-4046,PAYLOAD,2023-11-15 01:20:16,15.08813098,0.0001655,53.2166,230.2399,86.2091,273.9091,-0.00056819,-9.313e-05,0.0,0 STARLINK-4046,1 52842U 22062N   23319.05575006 -.00009313  00000-0 -56819-3 0  9999,2 52842  53.2166 230.2399 0001655  86.2091 273.9091 15.08813098 78613,6917.963,95.439,540.973,538.683,0.0
52842.0,STARLINK-4046,PAYLOAD,2023-11-16 01:11:02,15.08861843,0.0001842,53.2177,225.7759,62.5486,297.5694,0.00027446,4.085e-05,0.0,0 STARLINK-4046,1 52842U 22062N   23320.04932986  .00004085  00000-0  27446-3 0  9997,2 52842  53.2177 225.7759 0001842  62.5486 297.5694 15.08861843 78765,6917.814,95.436,540.953,538.404,0.0
52842.0,STARLINK-4046,PAYLOAD,2023-11-17 02:37:15,15.08798452,0.0001484,53.2158,221.0271,104.9674,255.1482,-8.6288e-05,-1.659e-05,0.0,0 STARLINK-4046,1 52842U 22062N   23321.10920889 -.00001659  00000-0 -86288-4 0  9990,2 52842  53.2158 221.0271 0001484 104.9674 255.1482 15.08798452 78922,6918.007,95.44,540.899,538.846,0.0
52842.0,STARLINK-4046,PAYLOAD,2023-11-17 10:34:11,15.08821327,0.000148,53.2159,219.5336,92.0583,268.0578,0.00019272,2.779e-05,0.0,0 STARLINK-4046,1 52842U 22062N   23321.44041442  .00002779  00000-0  19272-3 0  9996,2 52842  53.2159 219.5336 0001480  92.0583 268.0578 15.08821327 78971,6917.937,95.439,540.826,538.779,0.0
52842.0,STARLINK-4046,PAYLOAD,2023-11-17 23:17:15,15.08835007,0.0001699,53.2168,217.158,85.5663,274.5523,0.00042465,6.476e-05,0.0,0 STARLINK-4046,1 52842U 22062N   23321.97032052  .00006476  00000-0  42465-3 0  9999,2 52842  53.2168 217.1580 0001699  85.5663 274.5523 15.08835007 78561,6917.896,95.438,540.936,538.585,0.0
52842.0,STARLINK-4046,PAYLOAD,2023-11-18 02:28:02,15.08834752,0.000148,53.2164,216.5627,86.5942,273.522,0.00038658,5.869e-05,0.0,0 STARLINK-4046,1 52842U 22062N   23322.10280123  .00005869  00000-0  38658-3 0  9993,2 52842  53.2164 216.5627 0001480  86.5942 273.5220 15.08834752 79077,6917.896,95.438,540.785,538.738,0.0
52842.0,STARLINK-4046,PAYLOAD,2023-11-18 23:08:02,15.08844806,0.0001523,53.2156,212.6979,92.7556,267.361,0.00085718,0.00013382,0.0,0 STARLINK-4046,1 52842U 22062N   23322.96391866  .00013382  00000-0  85718-3 0  9992,2 52842  53.2156 212.6979 0001523  92.7556 267.3610 15.08844806 78718,6917.866,95.437,540.784,538.677,0.0
52842.0,STARLINK-4046,PAYLOAD,2023-11-19 10:15:43,15.08853457,0.0001516,53.2156,210.6139,96.199,263.9175,0.00023849,3.511e-05,0.0,0 STARLINK-4046,1 52842U 22062N   23323.42759154  .00003511  00000-0  23849-3 0  9992,2 52842  53.2156 210.6139 0001516  96.1990 263.9175 15.08853457 79278,6917.839,95.437,540.753,538.656,0.0
52842.0,STARLINK-4046,PAYLOAD,2023-11-19 19:48:02,15.08847113,0.000151,53.2156,208.8321,85.9468,274.1696,-1.4176e-05,-5.14e-06,0.0,0 STARLINK-4046,1 52842U 22062N   23323.82503345 -.00000514  00000-0 -14176-4 0  9991,2 52842  53.2156 208.8321 0001510  85.9468 274.1696 15.08847113 79331,6917.859,95.437,540.768,538.679,0.0
52842.0,STARLINK-4046,PAYLOAD,2023-11-19 22:58:49,15.08848935,0.0001566,53.217,208.2358,94.5228,265.5943,1.6119e-05,-3.1e-07,0.0,0 STARLINK-4046,1 52842U 22062N   23323.95751439 -.00000031  00000-0  16119-4 0  9996,2 52842  53.2170 208.2358 0001566  94.5228 265.5943 15.08848935 78861,6917.853,95.437,540.801,538.635,0.0
52842.0,STARLINK-4046,PAYLOAD,2023-11-20 02:09:35,15.08850756,0.0001606,53.2173,207.6423,92.945,267.1726,2.3848e-05,9.2e-07,0.0,0 STARLINK-4046,1 52842U 22062N   23324.08999228  .00000092  00000-0  23848-4 0  9994,2 52842  53.2173 207.6423 0001606  92.9450 267.1726 15.08850756 78887,6917.848,95.437,540.824,538.602,0.0
52842.0,STARLINK-4046,PAYLOAD,2023-11-20 22:49:35,15.08850995,0.0001694,53.2171,203.7756,96.6191,263.4994,4.6583e-05,4.54e-06,0.0,0 STARLINK-4046,1 52842U 22062N   23324.95110377  .00000454  00000-0  46583-4 0  9993,2 52842  53.2171 203.7756 0001694  96.6191 263.4994 15.08850995 79018,6917.847,95.437,540.884,538.54,0.0
52842.0,STARLINK-4046,PAYLOAD,2023-11-21 02:00:21,15.08851355,0.0001667,53.2169,203.1804,95.9423,264.1759,6.9354e-05,8.16e-06,0.0,0 STARLINK-4046,1 52842U 22062N   23325.08358221  .00000816  00000-0  69354-4 0  9993,2 52842  53.2169 203.1804 0001667  95.9423 264.1759 15.08851355 79527,6917.846,95.437,540.864,538.557,0.0
52842.0,STARLINK-4046,PAYLOAD,2023-11-21 21:04:59,15.08841291,0.0001543,53.2164,199.6137,96.6824,263.4344,0.000111,1.479e-05,0.0,0 STARLINK-4046,1 52842U 22062N   23325.87846874  .00001479  00000-0  11100-3 0  9997,2 52842  53.2164 199.6137 0001543  96.6824 263.4344 15.08841291 79155,6917.876,95.437,540.809,538.674,0.0
52842.0,STARLINK-4046,PAYLOAD,2023-11-21 22:40:22,15.08843023,0.0001589,53.2159,199.315,98.3622,261.7551,0.00010048,1.312e-05,0.0,0 STARLINK-4046,1 52842U 22062N   23325.94470759  .00001312  00000-0  10048-3 0  9996,2 52842  53.2159 199.3150 0001589  98.3622 261.7551 15.08843023 79657,6917.871,95.437,540.835,538.637,0.0
52842.0,STARLINK-4046,PAYLOAD,2023-11-22 20:55:46,15.08846168,0.0001513,53.215,195.152,97.9071,262.2093,0.00014008,1.942e-05,0.0,0 STARLINK-4046,1 52842U 22062N   23326.87206571  .00001942  00000-0  14008-3 0  9997,2 52842  53.2150 195.1520 0001513  97.9071 262.2093 15.08846168 79305,6917.862,95.437,540.773,538.68,0.0
52842.0,STARLINK-4046,PAYLOAD,2023-11-23 19:11:11,15.08828412,0.0001451,53.2143,190.9899,97.0111,263.1047,-0.00010507,-1.959e-05,0.0,0 STARLINK-4046,1 52842U 22062N   23327.79943580 -.00001959  00000-0 -10507-3 0  9997,2 52842  53.2143 190.9899 0001451  97.0111 263.1047 15.08828412 79936,6917.916,95.438,540.785,538.777,0.0
52842.0,STARLINK-4046,PAYLOAD,2023-11-23 22:21:57,15.08827919,0.0001409,53.2144,190.3959,91.9032,268.2121,-7.8643e-05,-1.539e-05,0.0,0 STARLINK-4046,1 52842U 22062N   23327.93191841 -.00001539  00000-0 -78643-4 0  9998,2 52842  53.2144 190.3959 0001409  91.9032 268.2121 15.08827919 79464,6917.917,95.438,540.757,538.808,0.0
52842.0,STARLINK-4046,PAYLOAD,2023-11-24 01:32:44,15.08833437,0.0001373,53.2152,189.7996,100.0554,260.0593,2.24e-05,6.9e-07,0.0,0 STARLINK-4046,1 52842U 22062N   23328.06439903  .00000069  00000-0  22400-4 0  9992,2 52842  53.2152 189.7996 0001373 100.0554 260.0593 15.08833437 79484,6917.9,95.438,540.715,538.816,0.0
52842.0,STARLINK-4046,PAYLOAD,2023-11-24 19:01:58,15.08844767,0.0001284,53.2153,186.5296,98.04,262.0738,1.8463e-05,6e-08,0.0,0 STARLINK-4046,1 52842U 22062N   23328.79303562  .00000006  00000-0  18463-4 0  9998,2 52842  53.2153 186.5296 0001284  98.0400 262.0738 15.08844767 80089,6917.866,95.437,540.619,538.843,0.0
52842.0,STARLINK-4046,PAYLOAD,2023-11-24 22:12:45,15.0881443,0.0001603,53.2153,185.9358,102.3949,257.7223,0.0005531,8.519e-05,0.0,0 STARLINK-4046,1 52842U 22062N   23328.92552142  .00008519  00000-0  55310-3 0  9991,2 52842  53.2153 185.9358 0001603 102.3949 257.7223 15.08814430 79614,6917.959,95.439,540.932,538.715,0.0
52842.0,STARLINK-4046,PAYLOAD,2023-11-24 23:48:08,15.08816622,0.0001616,53.2154,185.6364,101.6888,258.4285,0.0005653,8.714e-05,0.0,0 STARLINK-4046,1 52842U 22062N   23328.99176184  .00008714  00000-0  56530-3 0  9998,2 52842  53.2154 185.6364 0001616 101.6888 258.4285 15.08816622 80115,6917.952,95.439,540.935,538.699,0.0
52842.0,STARLINK-4046,PAYLOAD,2023-11-25 22:03:31,15.08850662,0.0001484,53.2158,181.4762,87.0551,273.0611,0.0003433,5.181e-05,0.0,0 STARLINK-4046,1 52842U 22062N   23329.91911492  .00005181  00000-0  34330-3 0  9999,2 52842  53.2158 181.4762 0001484  87.0551 273.0611 15.08850662 79769,6917.848,95.437,540.739,538.686,0.0
52842.0,STARLINK-4046,PAYLOAD,2023-11-25 23:38:54,15.08856028,0.0001507,53.2159,181.1738,108.2729,251.8427,0.0004092,6.233e-05,0.0,0 STARLINK-4046,1 52842U 22062N   23329.98535028  .00006233  00000-0  40920-3 0  9994,2 52842  53.2159 181.1738 0001507 108.2729 251.8427 15.08856028 80267,6917.831,95.437,540.739,538.654,0.0
52842.0,STARLINK-4046,PAYLOAD,2023-11-26 20:18:54,15.08837706,0.0001623,53.2149,177.3131,87.4863,272.6315,-0.0002458,-4.198e-05,0.0,0 STARLINK-4046,1 52842U 22062N   23330.84646683 -.00004198  00000-0 -24580-3 0  9995,2 52842  53.2149 177.3131 0001623  87.4863 272.6315 15.08837706 79904,6917.887,95.438,540.875,538.63,0.0
52842.0,STARLINK-4046,PAYLOAD,2023-11-27 13:48:09,15.08829566,0.0001594,53.2145,174.0402,86.5166,273.6008,-0.00035255,-5.893e-05,0.0,0 STARLINK-4046,1 52842U 22062N   23331.57511264 -.00005893  00000-0 -35255-3 0  9996,2 52842  53.2145 174.0402 0001594  86.5166 273.6008 15.08829566 80017,6917.912,95.438,540.88,538.675,0.0
